INMARSAT 4-F2 (SOUTHPA*)
1 28899U 05044A   26138.69141983 -.00000260  00000+0  00000+0 0  9997
2 28899   5.0584  43.7406 0002748  13.7227 211.3181  1.00270998 75226
GSAT-8 (GAGAN/PRN 127)  
1 37605U 11022A   26139.86086404  .00000081  00000+0  00000+0 0  9991
2 37605   2.0595  82.1464 0003553 221.0432 299.3251  1.00272726 52936
LUCH 5A (SDCM/PRN 140)  
1 37951U 11074B   26139.62805763 -.00000051  00000+0  00000+0 0  9991
2 37951   8.6836  74.2169 0002177 331.6718 224.6359  1.00274764 52765
SES-5 (EGNOS/PRN 136)   
1 38652U 12036A   26139.80979632  .00000031  00000+0  00000+0 0  9993
2 38652   0.0546 305.0772 0001852 107.3006 121.6121  1.00271172 44179
GSAT-10 (GAGAN/PRN 128) 
1 38779U 12051B   26139.82524199 -.00000167  00000+0  00000+0 0  9997
2 38779   0.0588 262.5071 0007259 179.9394 175.0854  1.00272957 49810
LUCH 5B (SDCM/PRN 125)  
1 38977U 12061A   26139.02131063 -.00000141  00000+0  00000+0 0  9996
2 38977  10.4219  50.1662 0001623 172.0362   5.8522  1.00269963 49311
ASTRA 5B (EGNOS/PRN 123)
1 39617U 14011B   26139.52817273  .00000136  00000+0  00000+0 0  9997
2 39617   0.0478   5.3430 0002186  31.6226  53.9095  1.00273814 44385
LUCH 5V (SDCM/PRN 141)  
1 39727U 14023A   26139.84886468 -.00000273  00000+0  00000+0 0  9992
2 39727   5.0639  70.0207 0001828  11.2269 196.6032  1.00273752 44078
GSAT-15 (GAGAN/PRN 139) 
1 41028U 15065A   26139.84886468 -.00000260  00000+0  00000+0 0  9992
2 41028   0.0143 241.6014 0003410 178.8836 216.1173  1.00269189 38516
EUTELSAT 117 WEST B (W*)
1 41589U 16038B   26139.71441255 -.00000014  00000+0  00000+0 0  9999
2 41589   0.0085 148.5023 0000485 291.4061 297.6656  1.00271921 36378
SES-15 (WAAS/PRN 133)   
1 42709U 17026A   26139.56938897  .00000058  00000+0  00000+0 0  9995
2 42709   0.0202 334.0930 0000566  27.0397 311.9389  1.00268820  7148
QZS-2 (QZSS/PRN 194)    
1 42738U 17028A   26138.60870817 -.00000187  00000+0  00000+0 0  9994
2 42738  39.4728 243.5900 0761639 268.9538  83.0393  1.00291579  7338
QZS-3 (QZSS/PRN 199)    
1 42917U 17048A   26139.83399537 -.00000351  00000+0  00000+0 0  9999
2 42917   0.0777 125.4179 0001826 287.2449 252.1243  1.00269442 31975
QZS-4 (QZSS/PRN 195)    
1 42965U 17062A   26139.46748259 -.00000331  00000+0  00000+0 0  9994
2 42965  40.1248 343.8478 0745874 271.2914 289.3206  1.00258742 31514
BEIDOU-3 G1 (PRN 130)   
1 43683U 18085A   26139.76923613 -.00000111  00000+0  00000+0 0  9996
2 43683   2.7964  98.1480 0007819 341.1192 235.0654  1.00271377 27776
EUTELSAT 5 WEST B (EGN*)
1 44624U 19067A   26139.80788963 -.00000045  00000+0  00000+0 0  9991
2 44624   0.0713 329.2661 0002780  82.4928 111.5583  1.00272718 24156
BEIDOU-3 G2 (PRN 144)   
1 45344U 20017A   26139.82472200 -.00000144  00000+0  00000+0 0  9994
2 45344   2.8080  46.9017 0002288   8.1529 199.3843  1.00271234 22979
BEIDOU-3 G3 (PRN 143)   
1 45807U 20040A   26139.83070204 -.00000357  00000+0  00000+0 0  9999
2 45807   2.3784  67.3653 0003046 331.7142 248.0274  1.00271094 21783
GALAXY 30 (WAAS/PRN 135)
1 46114U 20056C   26139.57016897  .00000035  00000+0  00000+0 0  9999
2 46114   0.0135 350.2615 0002012  60.3459 266.8951  1.00271514 21002
QZS-1R (QZSS/PRN 196)   
1 49336U 21096A   26137.72544839 -.00000240  00000+0  00000+0 0  9999
2 49336  37.4017  80.0331 0752528 271.2321 280.7165  1.00265511 16705
QZS-6 (QZSS/PRN 200)    
1 62876U 25023A   26139.84191691 -.00000236  00000+0  00000+0 0  9991
2 62876   0.0267 294.8316 0002107 124.8525 211.4349  1.00272191  4669
